satname,norad_id,inclination_deg,eccentricity,mean_motion_rev_per_day,perigee_km,apogee_km,l1,l2
STARLINK-1272,45386,53.0515,0.0008204,15.38112074,446.0891772364612,457.2955612655296,1 45386U 20019AC  25331.30550451  .00055138  00000+0  14465-2 0  9998,2 45386  53.0515 238.5471 0008204 100.6558 259.5369 15.38112074314689
STARLINK-1274,45387,53.033,0.0004536,15.32092438,466.4642876021953,472.6765277624445,1 45387U 20019AD  25331.16464079  .00063034  00000+0  20007-2 0  9996,2 45387  53.0330 227.5355 0004536  57.7193 302.4246 15.32092438314828
STARLINK-1280,45388,53.0531,0.0009388,15.44434787,426.6450127920707,439.4336774977137,1 45388U 20019AE  25331.21391428  .00075413  00000+0  15959-2 0  9994,2 45388  53.0531 257.3659 0009388  87.9020 272.3060 15.44434787314407
STARLINK-1283,45389,53.0529,0.0009327,15.3394942,457.6610856415,470.42448781566236,1 45389U 20019AF  25330.94967663  .00047864  00000+0  14373-2 0  9992,2 45389  53.0529 239.5112 0009327  95.1384 265.0682 15.33949420314646
STARLINK-1284,45390,53.0538,0.0001406,15.06390092,546.2682164208936,548.2156329745185,1 45390U 20019AG  25331.18054730  .00000901  00000+0  79409-4 0  9997,2 45390  53.0538 246.8036 0001406 100.7158 259.3989 15.06390092314557
STARLINK-1297,45395,53.0546,0.000171,15.06384606,546.0744960615984,548.4429814042451,1 45395U 20019AM  25331.15107002 -.00003170  00000+0 -19408-3 0  9995,2 45395  53.0546 246.9341 0001710  89.9158 270.2027 15.06384606313735
STARLINK-1307,45397,53.0537,0.0001401,15.06382625,546.2945615290437,548.2350591162958,1 45397U 20019AP  25331.14368899 -.00004792  00000+0 -30319-3 0  9994,2 45397  53.0537 246.9650 0001401  90.5278 269.5871 15.06382625314376
STARLINK-1255,45399,53.0463,0.0007181,15.33949092,459.1303920859373,468.9571320964533,1 45399U 20019AR  25331.15345911  .00064254  00000+0  19225-2 0  9996,2 45399  53.0463 229.6303 0007181 102.5813 257.5992 15.33949092314603
STARLINK-1260,45404,53.0536,0.000162,15.06379795,546.1515675469773,548.3954005438072,1 45404U 20019AW  25331.01191966  .00001410  00000+0  11362-3 0  9997,2 45404  53.0536 237.5528 0001620  88.1556 271.9619 15.06379795314381
STARLINK-1263,45405,53.0539,0.0001882,15.06386996,545.9480555126283,548.5547717115114,1 45405U 20019AX  25330.99718497 -.00002845  00000+0 -17220-3 0  9992,2 45405  53.0539 237.6251 0001882  91.1668 268.9536 15.06386996314382
STARLINK-1265,45406,53.0534,0.0001172,15.06387846,546.4371532314854,548.060463664986,1 45406U 20019AY  25331.13723981  .00001550  00000+0  12296-3 0  9992,2 45406  53.0534 236.9962 0001172 138.9662 221.1416 15.06387846314401
STARLINK-1278,45408,53.0514,0.0008589,15.3725858,448.35179517951565,460.08841821740316,1 45408U 20019BA  25331.24385279  .00053644  00000+0  14472-2 0  9998,2 45408  53.0514 258.9351 0008589  83.3488 276.8492 15.37258580314110
STARLINK-1296,45412,53.0532,0.0001413,15.06384297,546.2811272380068,548.2382443414099,1 45412U 20019BE  25331.00823017 -.00004614  00000+0 -29116-3 0  9991,2 45412  53.0532 237.5721 0001413  87.1751 272.9399 15.06384297314386
STARLINK-1298,45413,53.0448,0.0008828,15.57042473,390.241499533543,402.20230761369294,1 45413U 20019BF  25331.05693202  .00101641  00000+0  13678-2 0  9999,2 45413  53.0448 204.3297 0008828  56.2215 303.9636 15.57042473314957
STARLINK-1309,45414,53.055,0.0001001,15.06400175,546.5177942515729,547.9042489254953,1 45414U 20019BG  25331.15567050  .00004882  00000+0  34641-3 0  9995,2 45414  53.0550 236.9122 0001001  87.1474 272.9630 15.06400175314394
STARLINK-1316,45415,53.0539,0.0001368,15.06386971,546.3040970891088,548.1988833800369,1 45415U 20019BH  25330.98243783 -.00003124  00000+0 -19099-3 0  9990,2 45415  53.0539 237.6891 0001368  85.4309 274.6837 15.06386971314404
STARLINK-1318,45416,53.0478,0.0005484,15.6405769,372.2462483717027,379.6541312014615,1 45416U 20019BJ  25331.04686730  .00073129  00000+0  75716-3 0  9990,2 45416  53.0478 194.5001 0005484 125.4867 234.6659 15.64057690315000
STARLINK-1286,45417,53.0528,0.0005136,15.38894533,445.87045340859913,452.8836758557891,1 45417U 20019BK  25331.17930262  .00032998  00000+0  85097-3 0  9999,2 45417  53.0528 259.3515 0005136  84.3492 275.8097 15.38894533314376
STARLINK-1308,45419,53.0543,0.0001454,15.06393204,546.2254380689428,548.2393354866181,1 45419U 20019BM  25331.21557917  .00001618  00000+0  12754-3 0  9993,2 45419  53.0543 266.6408 0001454  91.7108 268.4047 15.06393204314021
STARLINK-1329,45531,53.0538,0.0001506,15.06397557,546.1760867711037,548.2620040119764,1 45531U 20025A   25331.05154492 -.00000551  00000+0 -18102-4 0  9999,2 45531  53.0538 207.3801 0001506  88.9193 271.1969 15.06397557309628
STARLINK-1338,45532,53.0535,0.0001406,15.06397587,546.245248398558,548.1926584926669,1 45532U 20025B   25331.06259369 -.00001654  00000+0 -92180-4 0  9993,2 45532  53.0535 207.3272 0001406  93.2025 266.9125 15.06397587309629
STARLINK-1350,45535,53.0725,0.0002282,15.33121833,464.9429137248817,468.0668082702405,1 45535U 20025E   25330.82848354  .00011423  00000+0  36291-3 0  9990,2 45535  53.0725 155.1407 0002282 100.8807 259.2451 15.33121833310368
STARLINK-1362,45538,53.0524,0.0001216,15.0639498,546.3848193024542,548.069067813527,1 45538U 20025H   25331.09478554 -.00013192  00000+0 -86852-3 0  9999,2 45538  53.0524 206.9031 0001216  93.4416 266.6712 15.06394980309630
STARLINK-1368,45540,53.0536,0.0001816,15.0639317,545.9748438841061,548.4901380832307,1 45540U 20025K   25331.03311420 -.00003343  00000+0 -20567-3 0  9992,2 45540  53.0536 207.4627 0001816  95.7267 264.3929 15.06393170309611
STARLINK-1371,45542,53.0536,0.0001866,15.06394652,545.9356757370633,548.520221935969,1 45542U 20025M   25331.06997268  .00000003  00000+0  19138-4 0  9998,2 45542  53.0536 207.2937 0001866  91.2309 268.8894 15.06394652309625
STARLINK-1372,45543,53.0535,0.0001773,15.06385436,546.0283226468564,548.484067073754,1 45543U 20025N   25331.04050125  .00000885  00000+0  78340-4 0  9997,2 45543  53.0535 207.4289 0001773  82.7011 277.4180 15.06385436308712
STARLINK-1373,45544,53.0527,0.0001315,15.06397691,546.3079504337975,548.1293189657235,1 45544U 20025P   25331.05891684  .00000057  00000+0  22690-4 0  9990,2 45544  53.0527 207.3426 0001315  92.3250 267.7890 15.06397691309627
STARLINK-1294,45551,53.0463,0.0005009,15.64566468,371.10349023899744,377.8682678392188,1 45551U 20025W   25330.72581783  .00090911  00000+0  91932-3 0  9999,2 45551  53.0463 131.5399 0005009 140.7993 219.3385 15.64566468310669
STARLINK-1325,45554,53.0512,0.0005458,15.72468868,348.1702479236701,355.51669460610356,1 45554U 20025Z   25331.33336806  .00136647  00000+0  99190-3 0  9995,2 45554  53.0512 120.7460 0005458 305.2619  77.8509 15.72468868  6017
STARLINK-1327,45555,53.0518,0.0001477,15.06399483,546.1902682532254,548.2360166853114,1 45555U 20025AA  25331.03126578 -.00000992  00000+0 -47715-4 0  9998,2 45555  53.0518 187.4695 0001477  79.7432 280.3723 15.06399483309891
STARLINK-1356,45564,53.053,0.0001644,15.06404037,546.0606598735058,548.3377104111805,1 45564U 20025AK  25330.83591455 -.00000172  00000+0  73785-5 0  9991,2 45564  53.0530 188.3432 0001644 103.2104 256.9069 15.06404037309860
STARLINK-1357,45565,53.059,0.0010252,15.3650095,449.45905561139716,463.47272537806657,1 45565U 20025AL  25330.83560273  .00078297  00000+0  21516-2 0  9990,2 45565  53.0590 168.2088 0010252 105.0021 255.2116 15.36500950310157
STARLINK-1361,45567,53.053,0.000171,15.06395559,546.0409320661965,548.4094059279932,1 45567U 20025AN  25330.92069149 -.00001930  00000+0 -11073-3 0  9998,2 45567  53.0530 187.9629 0001710  84.5951 275.5233 15.06395559309881
STARLINK-1363,45568,53.0515,0.0006893,15.45882359,424.0946556390618,433.47868060793553,1 45568U 20025AP  25330.89782472  .00092342  00000+0  18554-2 0  9991,2 45568  53.0515 178.7518 0006893 145.0271 215.1189 15.45882359310003
STARLINK-1366,45569,53.0514,0.0005156,15.43324256,432.7928419494665,439.81989595152754,1 45569U 20025AQ  25330.82381068  .00081295  00000+0  17860-2 0  9995,2 45569  53.0514 178.8813 0005156 141.8419 218.2952 15.43324256309994
STARLINK-1376,45570,53.0538,0.0001478,15.06395585,546.2015207936502,548.2486578272501,1 45570U 20025AR  25331.11604674 -.00000706  00000+0 -28483-4 0  9996,2 45570  53.0538 187.0909 0001478  88.8708 271.2450 15.06395585309909
STARLINK-1320,45572,53.0558,0.0008939,15.45801948,422.9378053632445,435.10764552038836,1 45572U 20025AT  25330.73405778  .00073684  00000+0  14891-2 0  9998,2 45572  53.0558 125.1164 0008939 105.0458 255.1538 15.45801948310764
STARLINK-1321,45573,53.0537,0.0001554,15.06409917,546.1049694856556,548.2573583710046,1 45573U 20025AU  25330.90318124 -.00003681  00000+0 -22826-3 0  9996,2 45573  53.0537 178.0467 0001554  91.7265 268.3903 15.06409917309710
STARLINK-1328,45576,53.0467,0.0006737,15.78857245,329.1555458321809,338.1990444134299,1 45576U 20025AX  25331.33336806  .00261100  00000+0  14088-2 0  9994,2 45576  53.0467 139.5614 0006737 139.1509 256.3656 15.78857245  5936
STARLINK-1331,45578,53.0541,0.0001584,15.06393756,546.1337167221964,548.3276732079612,1 45578U 20025AZ  25331.01375841 -.00001023  00000+0 -49794-4 0  9995,2 45578  53.0541 177.5499 0001584  94.6350 265.4820 15.06393756310046
STARLINK-1333,45580,53.0524,0.0001285,15.06391522,546.3476312804505,548.1274525377212,1 45580U 20025BB  25331.02020617  .00000980  00000+0  84692-4 0  9992,2 45580  53.0524 187.5171 0001285 100.3646 259.7488 15.06391522309895
STARLINK-1335,45581,53.0525,0.0001277,15.06395062,546.342323294919,548.1110611819167,1 45581U 20025BC  25330.89212467  .00002459  00000+0  18396-3 0  9993,2 45581  53.0525 178.0967 0001277  99.6528 260.4606 15.06395062310015
STARLINK-1337,45582,53.0527,0.0001748,15.06403538,545.9901654665719,548.4112635315605,1 45582U 20025BD  25330.84789536  .00000805  00000+0  72958-4 0  9993,2 45582  53.0527 178.2957 0001748  76.1819 283.9364 15.06403538310003
